{
  "type": "FeatureCollection",
  "features": [
    {
      "type": "Feature",
      "properties": {
        "norad_id": 25730,
        "name": "FENGYUN 1C",
        "group": "fengyun-1c-debris",
        "lat": 37.50084892474812,
        "lon": -111.34191159504279,
        "alt_km": 803.0366036651867,
        "timestamp": "2025-12-21T14:40:48.187445+00:00",
        "meta_object_name": "FENGYUN 1C",
        "meta_object_id": "1999-025A",
        "meta_epoch": "2025-12-21T03:54:52.970976",
        "meta_mean_motion": 14.26090998,
        "meta_eccentricity": 0.00103544,
        "meta_inclination": 98.8828,
        "meta_ra_of_asc_node": 61.3111,
        "meta_arg_of_pericenter": 45.4936,
        "meta_mean_anomaly": 314.7088,
        "meta_ephemeris_type": 0,
        "meta_classification_type": "U",
        "meta_norad_cat_id": 25730,
        "meta_element_set_no": 999,
        "meta_rev_at_epoch": 37257,
        "meta_bstar": 0.00079504638,
        "meta_mean_motion_dot": 1.856e-05,
        "meta_mean_motion_ddot": 0,
        "tle_line1": "1 25730U 99025A   25355.16311309  .00001856  00000+0  79505-3 0  9994",
        "tle_line2": "2 25730  98.8828  61.3111 0010354  45.4936 314.7088 14.26090998372572"
      },
      "geometry": {
        "type": "Point",
        "coordinates": [
          -111.34191159504279,
          37.50084892474812
        ]
      }
    },
    {
      "type": "Feature",
      "properties": {
        "norad_id": 29733,
        "name": "FENGYUN 1C DEB",
        "group": "fengyun-1c-debris",
        "lat": -68.46740663925544,
        "lon": 74.64756986270636,
        "alt_km": 1394.806648169867,
        "timestamp": "2025-12-21T14:40:48.187466+00:00",
        "meta_object_name": "FENGYUN 1C DEB",
        "meta_object_id": "1999-025X",
        "meta_epoch": "2025-12-20T02:12:18.520128",
        "meta_mean_motion": 12.96483633,
        "meta_eccentricity": 0.05697528,
        "meta_inclination": 99.2243,
        "meta_ra_of_asc_node": 49.0393,
        "meta_arg_of_pericenter": 185.1112,
        "meta_mean_anomaly": 208.3107,
        "meta_ephemeris_type": 0,
        "meta_classification_type": "U",
        "meta_norad_cat_id": 29733,
        "meta_element_set_no": 999,
        "meta_rev_at_epoch": 89215,
        "meta_bstar": 0.001449954,
        "meta_mean_motion_dot": 8.42e-06,
        "meta_mean_motion_ddot": 0,
        "tle_line1": "1 29733U 99025X   25354.09188102  .00000842  00000+0  14500-2 0  9992",
        "tle_line2": "2 29733  99.2243  49.0393 0569752 185.1112 208.3107 12.96483633892157"
      },
      "geometry": {
        "type": "Point",
        "coordinates": [
          74.64756986270636,
          -68.46740663925544
        ]
      }
    },
    {
      "type": "Feature",
      "properties": {
        "norad_id": 29734,
        "name": "FENGYUN 1C DEB",
        "group": "fengyun-1c-debris",
        "lat": -65.1183155442075,
        "lon": -55.552927986706514,
        "alt_km": 1034.8745324689007,
        "timestamp": "2025-12-21T14:40:48.187479+00:00",
        "meta_object_name": "FENGYUN 1C DEB",
        "meta_object_id": "1999-025Y",
        "meta_epoch": "2025-12-21T02:02:37.644288",
        "meta_mean_motion": 12.91348399,
        "meta_eccentricity": 0.0615674,
        "meta_inclination": 99.1706,
        "meta_ra_of_asc_node": 283.6248,
        "meta_arg_of_pericenter": 352.8244,
        "meta_mean_anomaly": 19.8462,
        "meta_ephemeris_type": 0,
        "meta_classification_type": "U",
        "meta_norad_cat_id": 29734,
        "meta_element_set_no": 999,
        "meta_rev_at_epoch": 88656,
        "meta_bstar": 0.0030044585,
        "meta_mean_motion_dot": 1.839e-05,
        "meta_mean_motion_ddot": 0,
        "tle_line1": "1 29734U 99025Y   25355.08515792  .00001839  00000+0  30045-2 0  9991",
        "tle_line2": "2 29734  99.1706 283.6248 0615674 352.8244  19.8462 12.91348399886561"
      },
      "geometry": {
        "type": "Point",
        "coordinates": [
          -55.552927986706514,
          -65.1183155442075
        ]
      }
    },
    {
      "type": "Feature",
      "properties": {
        "norad_id": 29735,
        "name": "FENGYUN 1C DEB",
        "group": "fengyun-1c-debris",
        "lat": 48.77287239494078,
        "lon": -101.79713564613714,
        "alt_km": 1468.1108157985254,
        "timestamp": "2025-12-21T14:40:48.187491+00:00",
        "meta_object_name": "FENGYUN 1C DEB",
        "meta_object_id": "1999-025Z",
        "meta_epoch": "2025-12-21T04:58:53.220288",
        "meta_mean_motion": 12.75061895,
        "meta_eccentricity": 0.06975122,
        "meta_inclination": 99.3914,
        "meta_ra_of_asc_node": 268.7521,
        "meta_arg_of_pericenter": 156.4076,
        "meta_mean_anomaly": 207.0711,
        "meta_ephemeris_type": 0,
        "meta_classification_type": "U",
        "meta_norad_cat_id": 29735,
        "meta_element_set_no": 999,
        "meta_rev_at_epoch": 87523,
        "meta_bstar": 0.0016755508,
        "meta_mean_motion_dot": 9.46e-06,
        "meta_mean_motion_ddot": 0,
        "tle_line1": "1 29735U 99025Z   25355.20756042  .00000946  00000+0  16756-2 0  9992",
        "tle_line2": "2 29735  99.3914 268.7521 0697512 156.4076 207.0711 12.75061895875230"
      },
      "geometry": {
        "type": "Point",
        "coordinates": [
          -101.79713564613714,
          48.77287239494078
        ]
      }
    },
    {
      "type": "Feature",
      "properties": {
        "norad_id": 29736,
        "name": "FENGYUN 1C DEB",
        "group": "fengyun-1c-debris",
        "lat": -12.975529513231422,
        "lon": 175.49881029625723,
        "alt_km": 1987.7570337929292,
        "timestamp": "2025-12-21T14:40:48.187503+00:00",
        "meta_object_name": "FENGYUN 1C DEB",
        "meta_object_id": "1999-025AA",
        "meta_epoch": "2025-12-19T23:22:44.870016",
        "meta_mean_motion": 12.57503149,
        "meta_eccentricity": 0.0724856,
        "meta_inclination": 99.4031,
        "meta_ra_of_asc_node": 171.9873,
        "meta_arg_of_pericenter": 183.1755,
        "meta_mean_anomaly": 312.1954,
        "meta_ephemeris_type": 0,
        "meta_classification_type": "U",
        "meta_norad_cat_id": 29736,
        "meta_element_set_no": 999,
        "meta_rev_at_epoch": 86635,
        "meta_bstar": 0.0014432,
        "meta_mean_motion_dot": 6.26e-06,
        "meta_mean_motion_ddot": 0,
        "tle_line1": "1 29736U 99025AA  25353.97413044  .00000626  00000+0  14432-2 0  9991",
        "tle_line2": "2 29736  99.4031 171.9873 0724856 183.1755 312.1954 12.57503149866353"
      },
      "geometry": {
        "type": "Point",
        "coordinates": [
          175.49881029625723,
          -12.975529513231422
        ]
      }
    },
    {
      "type": "Feature",
      "properties": {
        "norad_id": 29737,
        "name": "FENGYUN 1C DEB",
        "group": "fengyun-1c-debris",
        "lat": -25.121431908124734,
        "lon": -46.24424720362283,
        "alt_km": 1832.7010457500974,
        "timestamp": "2025-12-21T14:40:48.187514+00:00",
        "meta_object_name": "FENGYUN 1C DEB",
        "meta_object_id": "1999-025AB",
        "meta_epoch": "2025-12-20T16:40:20.154144",
        "meta_mean_motion": 12.65673558,
        "meta_eccentricity": 0.06954355,
        "meta_inclination": 99.5802,
        "meta_ra_of_asc_node": 308.4483,
        "meta_arg_of_pericenter": 121.2034,
        "meta_mean_anomaly": 1.9894,
        "meta_ephemeris_type": 0,
        "meta_classification_type": "U",
        "meta_norad_cat_id": 29737,
        "meta_element_set_no": 999,
        "meta_rev_at_epoch": 86969,
        "meta_bstar": 0.0028507804,
        "meta_mean_motion_dot": 1.359e-05,
        "meta_mean_motion_ddot": 0,
        "tle_line1": "1 29737U 99025AB  25354.69467771  .00001359  00000+0  28508-2 0  9991",
        "tle_line2": "2 29737  99.5802 308.4483 0695435 121.2034   1.9894 12.65673558869695"
      },
      "geometry": {
        "type": "Point",
        "coordinates": [
          -46.24424720362283,
          -25.121431908124734
        ]
      }
    },
    {
      "type": "Feature",
      "properties": {
        "norad_id": 29738,
        "name": "FENGYUN 1C DEB",
        "group": "fengyun-1c-debris",
        "lat": -30.461527833097264,
        "lon": -24.667627920727714,
        "alt_km": 1087.6004553464545,
        "timestamp": "2025-12-21T14:40:48.187525+00:00",
        "meta_object_name": "FENGYUN 1C DEB",
        "meta_object_id": "1999-025AC",
        "meta_epoch": "2025-12-20T20:19:53.404032",
        "meta_mean_motion": 12.61067346,
        "meta_eccentricity": 0.0865132,
        "meta_inclination": 99.4094,
        "meta_ra_of_asc_node": 160.3035,
        "meta_arg_of_pericenter": 276.9344,
        "meta_mean_anomaly": 73.4203,
        "meta_ephemeris_type": 0,
        "meta_classification_type": "U",
        "meta_norad_cat_id": 29738,
        "meta_element_set_no": 999,
        "meta_rev_at_epoch": 86319,
        "meta_bstar": 0.0021711,
        "meta_mean_motion_dot": 1.621e-05,
        "meta_mean_motion_ddot": 0,
        "tle_line1": "1 29738U 99025AC  25354.84714588  .00001621  00000+0  21711-2 0  9991",
        "tle_line2": "2 29738  99.4094 160.3035 0865132 276.9344  73.4203 12.61067346863196"
      },
      "geometry": {
        "type": "Point",
        "coordinates": [
          -24.667627920727714,
          -30.461527833097264
        ]
      }
    }
  ]
}